{
 "type": "FeatureCollection",
 "crs": {
  "type": "name",
  "properties": {
   "name": "urn:ogc:def:crs:EPSG::28992"
  }
 },
 "features": [
  {
   "type": "Feature",
   "geometry": {
    "type": "Polygon",
    "coordinates": [
     [
      [
       84386.381,
       446221.355
      ],
      [
       84386.802,
       446221.489
      ],
      [
       84387.243,
       446220.09
      ],
      [
       84387.39,
       446220.137
      ],
      [
       84388.407,
       446220.462
      ],
      [
       84388.59,
       446220.521
      ],
      [
       84389.889,
       446216.423
      ],
      [
       84390.137,
       446215.639
      ],
      [
       84393.129,
       446206.201
      ],
      [
       84398.364,
       446189.686
      ],
      [
       84408.748,
       446156.867
      ],
      [
       84410.281,
       446152.021
      ],
      [
       84415.16,
       446153.545
      ],
      [
       84395.08,
       446216.926
      ],
      [
       84397.451,
       446217.687
      ],
      [
       84398.806,
       446218.1
      ],
      [
       84398.933,
       446218.138
      ],
      [
       84398.97,
       446218.024
      ],
      [
       84408.94,
       446186.565
      ],
      [
       84420.447,
       446150.196
      ],
      [
       84422.945,
       446142.323
      ],
      [
       84422.897,
       446142.308
      ],
      [
       84423.06,
       446141.793
      ],
      [
       84435.361,
       446145.687
      ],
      [
       84411.698,
       446220.446
      ],
      [
       84411.193,
       446222.043
      ],
      [
       84411.126,
       446222.252
      ],
      [
       84404.695,
       446242.554
      ],
      [
       84381.828,
       446235.313
      ],
      [
       84376.116,
       446233.495
      ],
      [
       84380.514,
       446219.508
      ],
      [
       84386.381,
       446221.355
      ]
     ]
    ]
   },
   "properties": {
    "bag_id": "0503100000037335",
    "grup": "olasi yeniden yapim",
    "bouwjaar": 2023,
    "status": "Pand in gebruik",
    "gebruiksdoel_pand": "woonfunctie",
    "woonfunctie_vbo": 94,
    "vbo_toplam": 94,
    "footprint_area_m2": 1961.8,
    "lat": 51.999653,
    "lon": 4.3592248,
    "gozlem": ""
   }
  },
  {
   "type": "Feature",
   "geometry": {
    "type": "Polygon",
    "coordinates": [
     [
      [
       84019.574,
       445834.539
      ],
      [
       84020.0,
       445833.033
      ],
      [
       84041.185,
       445838.876
      ],
      [
       84034.081,
       445864.566
      ],
      [
       84031.759,
       445872.997
      ],
      [
       84031.753,
       445872.995
      ],
      [
       84031.501,
       445873.911
      ],
      [
       84031.503,
       445873.931
      ],
      [
       84029.256,
       445882.058
      ],
      [
       84028.988,
       445883.033
      ],
      [
       84028.367,
       445885.298
      ],
      [
       84003.181,
       445878.357
      ],
      [
       84003.667,
       445876.65
      ],
      [
       84016.038,
       445831.887
      ],
      [
       84016.661,
       445832.056
      ],
      [
       84016.226,
       445833.621
      ],
      [
       84019.574,
       445834.539
      ]
     ]
    ]
   },
   "properties": {
    "bag_id": "0503100000037336",
    "grup": "olasi yeniden yapim",
    "bouwjaar": 2023,
    "status": "Pand in gebruik",
    "gebruiksdoel_pand": "bijeenkomstfunctie,overige gebruiksfunctie,woonfunctie",
    "woonfunctie_vbo": 260,
    "vbo_toplam": 262,
    "footprint_area_m2": 1251.64,
    "lat": 51.9965683,
    "lon": 4.353681,
    "gozlem": ""
   }
  },
  {
   "type": "Feature",
   "geometry": {
    "type": "Polygon",
    "coordinates": [
     [
      [
       83993.194,
       445748.567
      ],
      [
       83986.944,
       445746.873
      ],
      [
       83984.94,
       445746.329
      ],
      [
       83978.696,
       445744.637
      ],
      [
       83986.364,
       445716.405
      ],
      [
       83986.931,
       445714.315
      ],
      [
       83989.794,
       445703.726
      ],
      [
       83996.421,
       445705.509
      ],
      [
       83997.261,
       445702.246
      ],
      [
       84005.174,
       445704.393
      ],
      [
       84004.782,
       445705.865
      ],
      [
       84008.291,
       445706.823
      ],
      [
       84003.171,
       445725.715
      ],
      [
       84002.718,
       445727.386
      ],
      [
       83998.444,
       445743.156
      ],
      [
       83997.122,
       445748.031
      ],
      [
       83993.725,
       445747.102
      ],
      [
       83993.604,
       445747.069
      ],
      [
       83993.194,
       445748.567
      ]
     ]
    ]
   },
   "properties": {
    "bag_id": "0503100000038177",
    "grup": "olasi yeniden yapim",
    "bouwjaar": 2025,
    "status": "Pand in gebruik",
    "gebruiksdoel_pand": "winkelfunctie,woonfunctie",
    "woonfunctie_vbo": 58,
    "vbo_toplam": 59,
    "footprint_area_m2": 819.92,
    "lat": 51.9953681,
    "lon": 4.3532921,
    "gozlem": ""
   }
  }
 ]
}