{"type": "FeatureCollection", "crs": {"type": "name", "properties": {"name": "urn:ogc:def:crs:EPSG::28992"}}, "features": [{"type": "Feature", "properties": {"name": "A — analiz alani", "definition": "Voorhof (WK050324) 7 resmi konut buurt'unun birlesimi", "included_buurtcodes": ["BU05032400", "BU05032401", "BU05032403", "BU05032404", "BU05032405", "BU05032406", "BU05032407"], "excluded_buurtcodes": ["BU05032402", "BU05032408"], "area_ha_geometric": 109.62, "area_ha_cbs_land": 107, "role": "analysis", "decision_ref": "D-009", "source": "CBS Wijken en Buurten 2025 (PDOK WFS)"}, "geometry": {"type": "Polygon", "coordinates": [[[84460.533, 445894.35410000384], [84476.74909999967, 445844.62210000306], [84478.09809999913, 445833.57709999755], [84532.579, 445664.2770999968], [84573.77699999884, 445537.13410000876], [84622.25809999928, 445385.6141000092], [84650.307, 445302.10909999907], [84646.39720000327, 445284.869], [84648.52590000257, 445280.5441000089], [84650.09390000254, 445277.277100008], [84651.7798999995, 445274.6740999967], [84653.6959999986, 445272.76110000536], [84656.45390000194, 445271.0771000087], [84659.2899999991, 445269.92900000885], [84663.12189999968, 445269.3170999959], [84668.10290000215, 445269.3170999959], [84674.31000000238, 445270.0051000044], [84694.69490000233, 445272.0721000023], [84698.06709999964, 445271.6130000055], [84702.20500000194, 445270.08200000226], [84705.27090000361, 445267.8621000014], [84708.3359999992, 445264.49510000646], [84711.555, 445257.6061000079], [84714.04490000382, 445254.1040999964], [84716.88089999929, 445251.5020999983], [84731.97790000215, 445241.6290000044], [84734.737, 445235.58200000226], [84736.03889999911, 445235.27610000595], [84742.6970999986, 445215.8681000024], [84750.53210000321, 445172.86910000443], [84752.6660999991, 445163.7681000009], [84724.8019000031, 445153.36410000175], [84692.28390000015, 445141.0931000002], [84661.98590000346, 445129.633100003], [84630.92400000244, 445117.827100005], [84511.65689999983, 445073.25609999895], [84435.27500000224, 445043.752100002], [84370.15200000256, 445018.3060999997], [84329.56399999931, 445002.4470999986], [84268.53300000355, 444970.5201000087], [84189.83000000194, 444919.5211000033], [84071.40690000355, 444861.67310000584], [84009.16189999878, 444839.54610000923], [83949.1409999989, 444822.75609999895], [83916.43410000205, 444815.96100000665], [83911.76200000569, 444838.449000001], [83906.18299999833, 444850.2370000072], [83902.96410000324, 444862.239], [83896.95610000566, 444888.8150000088], [83892.87910000235, 444909.81900000945], [83888.78010000288, 444926.7291000113], [83880.57500000298, 444960.57609999925], [83847.386, 445097.404], [83839.87600000203, 445131.053], [83811.73500000313, 445267.7250000015], [83809.72510000318, 445277.48900001124], [83792.12909999862, 445359.4130000062], [83788.26709999889, 445373.344000001], [83781.18500000238, 445400.7769999951], [83770.67010000348, 445447.2849999964], [83757.61200000346, 445510.4571000114], [83738.0530000031, 445605.08000001], [83723.89009999856, 445673.930999998], [83713.805, 445727.29700000957], [83707.65310000256, 445764.25700000674], [83703.90199999884, 445794.6980000064], [83701.92090000212, 445816.35410000384], [83700.088, 445836.3950000033], [83699.58800000325, 445845.278000001], [83698.01399999857, 445889.89800000936], [83695.88309999928, 445966.42799999565], [83693.51600000262, 446054.901000008], [83691.77190000191, 446091.0691000074], [83690.91099999845, 446108.93600000814], [83685.70200000331, 446190.34299999475], [83687.5960999988, 446225.13600000367], [83682.7880000025, 446297.9019999951], [83673.67310000211, 446361.78809999675], [83681.80689999834, 446364.29609999806], [83689.4179000035, 446364.61910000816], [83692.37600000203, 446362.58710000664], [83697.50300000235, 446362.2321000062], [83702.65800000355, 446362.5251000039], [83707.14100000262, 446363.1691000089], [83751.41990000382, 446372.2231000066], [83755.19799999893, 446373.1601000093], [83759.72399999946, 446374.695100002], [83763.70200000331, 446376.6621000059], [83777.47089999914, 446384.4250999987], [83784.54789999872, 446388.46009999886], [83790.998, 446391.5320999995], [83793.82189999893, 446392.37409999594], [83796.09090000391, 446392.9230999984], [83797.9059999995, 446393.28910000995], [83801.04790000245, 446393.80309999734], [83804.60190000758, 446394.21609999985], [83808.80889999866, 446394.51110000536], [83811.57590000331, 446394.5471000001], [83815.2599, 446394.2871000059], [83839.87690000236, 446392.4560999982], [83842.85100000352, 446392.40910000727], [83845.40600000322, 446392.63310000673], [83847.09699999914, 446392.95209999755], [83848.9419000037, 446393.4841000065], [83851.15289999917, 446394.37010000274], [83858.83200000226, 446397.8150999956], [83860.48700000346, 446398.5830999948], [83868.79200000316, 446402.54310000315], [83881.61200000346, 446408.87409999967], [83891.19690000266, 446413.9171000123], [83897.93790000305, 446417.7670999989], [83906.96590000391, 446423.2101000063], [83917.463, 446429.85010001063], [83926.91589999944, 446436.20910001174], [83935.9419, 446442.6650999971], [83946.53100000322, 446450.7761000097], [83948.79700000212, 446452.8051000051], [83954.18990000337, 446458.2140999958], [83960.33989999816, 446464.5451000072], [83961.61700000241, 446467.002100002], [83962.3030000031, 446469.31709999964], [83962.421, 446475.0691], [83962.2899999991, 446478.0691], [83985.373, 446493.6371], [83999.20789999887, 446464.2501000054], [84005.463, 446441.93810000643], [84026.01600000262, 446399.9911000021], [84051.63289999962, 446352.80110000446], [84070.84500000253, 446309.0691], [84080.07900000364, 446275.89809999615], [84094.59810000286, 446180.60909999907], [84095.27000000328, 446176.2001000121], [84115.3879000023, 446177.95710000396], [84164.75189999864, 446197.7561000027], [84256.32300000265, 446230.8201000057], [84276.46999999881, 446239.3601000011], [84383.59920000285, 446283.1770000048], [84390.27740000188, 446277.42069999874], [84399.12340000272, 446277.87790000066], [84419.71590000764, 446286.1664000042], [84429.92310000211, 446256.65310000256], [84479.80209999904, 446112.15409999713], [84517.57499999925, 446002.39710001275], [84455.17200000212, 445963.7171000093], [84440.14889999852, 445957.1261000037], [84460.533, 445894.35410000384]]]}}]}