{"type": "FeatureCollection", "crs": {"type": "name", "properties": {"name": "urn:ogc:def:crs:EPSG::28992"}}, "features": [{"type": "Feature", "properties": {"name": "B — baglam / tampon", "definition": "A + 300 m tampon", "area_ha_geometric": 277.76, "role": "context", "reported": false, "note": "SIMULE EDILIR, RAPORLANMAZ (AGENTS.md Bolum 3). Sanayi binalari burada KALIR.", "industry_ha_inside": 17.14, "decision_ref": "D-009"}, "geometry": {"type": "Polygon", "coordinates": [[[83625.2067009271, 444745.3023692973], [83624.58125750885, 444746.79397884634], [83616.4232086252, 444772.5243028246], [83613.20430863011, 444784.5263028174], [83610.3482915653, 444796.0877441373], [83604.34029156771, 444822.66374414606], [83602.45281762494, 444831.650179822], [83599.69343701373, 444845.86603224115], [83597.2240126232, 444856.05344707303], [83589.02427530028, 444889.87832538947], [83555.84004513951, 445026.68656081776], [83554.58978982018, 445032.0558607431], [83547.07978982221, 445065.70486074314], [83546.04001110783, 445070.5516642249], [83517.89901110894, 445207.22366422636], [83516.14481127607, 445215.74548283225], [83500.67302707555, 445287.7794933141], [83499.17043970733, 445293.199623977], [83497.79060635442, 445298.3546231532], [83490.70850635791, 445325.78762314736], [83488.57040950171, 445334.62035689614], [83478.05550950281, 445381.12835689745], [83476.88091616936, 445386.5567902247], [83463.82281616934, 445449.72889023967], [83444.26369743733, 445544.3523646377], [83430.04261810804, 445613.4855089619], [83429.1077623023, 445618.223070739], [83419.02266230373, 445671.5890707506], [83417.87631262939, 445678.0404066325], [83411.72441263196, 445715.0004066297], [83409.9051545715, 445727.56693334575], [83406.15405456779, 445758.0079333454], [83405.1494643188, 445767.36811847077], [83403.16836432209, 445789.0242184682], [83401.33486730942, 445809.07164538564], [83400.5621125654, 445819.535499521], [83400.06211256864, 445828.4184995187], [83399.77448182303, 445834.7018798995], [83398.20048181835, 445879.32187990786], [83398.13022552808, 445881.54804136674], [83395.99932552878, 445958.07804135303], [83395.99041733335, 445958.4043547249], [83393.7093182696, 446043.66297403997], [83392.12009779946, 446076.61927520484], [83391.37237872777, 446092.13724242104], [83386.31427334747, 446171.1860396971], [83386.14555687076, 446206.6505865047], [83387.05703316821, 446223.3936280024], [83384.19016451554, 446266.78094617714], [83376.68065127089, 446319.4149316395], [83373.922261834, 446349.5637383563], [83374.21653246418, 446379.8370378713], [83377.56046631174, 446409.92652715166], [83383.92000878192, 446439.5257750864], [83393.2303943466, 446468.33334317827], [83405.39680611584, 446496.05585539114], [83420.29534145241, 446522.4109858889], [83437.77427379515, 446547.13033423974], [83457.65559784105, 446569.96215880354], [83479.73684234977, 446590.67394046707], [83503.79313210909, 446609.05475061643], [83529.57947806224, 446624.9173992324], [83556.83327227444, 446638.1003412322], [83585.27696232988, 446648.46932164306], [83593.41076232611, 446650.9773216444], [83618.23265480871, 446657.48258561525], [83643.51965986381, 446661.842881602], [83665.01920433655, 446663.67893941305], [83683.3163090951, 446671.5404095974], [83705.27663835202, 446679.0244445188], [83708.10053835095, 446679.86644451524], [83723.27063065054, 446683.96031090675], [83725.53963065552, 446684.5093109092], [83736.7918835645, 446687.00408654683], [83738.60698356008, 446687.3700865584], [83749.47127794017, 446689.35341346066], [83749.48607614041, 446689.35583437624], [83770.06626563318, 446708.3950341595], [83794.54457145192, 446726.7887638819], [83817.62757145282, 446742.35676388186], [83842.18408024142, 446757.2598100581], [83868.05334967493, 446769.745954707], [83894.9982094549, 446779.7007244508], [83922.77162823595, 446787.03285363875], [83951.11897841688, 446791.67512107344], [83979.78037057494, 446793.58496629697], [84008.49303614034, 446792.74487978657], [84036.99373646706, 446789.1625634826], [84065.02117621324, 446782.8708601766], [84092.31839890529, 446773.92745240795], [84118.63514272321, 446762.4143336282], [84143.730134909, 446748.43705648236], [84167.3733037631, 446732.1237650992], [84189.34788794922, 446713.6240202614], [84209.45242376921, 446693.10742822767], [84227.5025921888, 446670.76208577695], [84243.33290868044, 446646.79285573115], [84256.79824039085, 446621.41948876606], [84270.63314038972, 446592.0324887715], [84280.32771096186, 446568.9957533001], [84281.65015710625, 446564.9372718967], [84298.30759338885, 446570.7971346289], [84327.43821550389, 446577.8733586863], [84357.12961509057, 446582.00698691135], [84377.03575338205, 446582.7710227022], [84390.75321995726, 446584.765065715], [84419.30480018971, 446586.1661183323], [84447.86011300607, 446584.84332123294], [84476.1598902272, 446580.8086847633], [84503.94718381125, 446574.09884143586], [84530.96969881555, 446564.7747133238], [84556.98208411025, 446552.9209589191], [84581.7481600459, 446538.64520447474], [84605.04306284832, 446522.0770668114], [84626.65528627094, 446503.3669764605], [84646.38860196735, 446482.6848118293], [84664.06384114815, 446460.21835678833], [84679.52052134517, 446436.1715956864], [84692.61830351342, 446410.76286127325], [84703.23826624041, 446384.2228523455], [84713.44546623489, 446354.7095523439], [84763.3826757535, 446210.04208217456], [84801.24605614063, 446100.02256752836], [84809.31439125117, 446072.31224566774], [84814.68264598044, 446043.9548513898], [84817.30113653629, 446015.2128355196], [84817.14562849858, 445986.3522085977], [84814.21756111142, 445957.6400789231], [84808.54403396281, 445929.3421804363], [84800.17755617495, 445901.7204133223], [84789.19556042652, 445875.03042009537], [84783.42152343654, 445864.11577951757], [84818.06386712317, 445756.4643129287], [84859.16858152757, 445629.6092058077], [84859.50714518157, 445628.55775194766], [84902.70902775718, 445493.53710992885], [84905.21919851142, 445491.51513021527], [84927.11543018106, 445469.8150757912], [84930.18053017664, 445466.44807579624], [84930.34888843144, 445466.2433665719], [84940.17633696359, 445457.6230065111], [84959.51670988557, 445437.14393548714], [84976.85109465572, 445414.9411996331], [84989.41827403668, 445395.28939423076], [84994.51779824856, 445387.5543294406], [85008.54868117621, 445360.72895634174], [85019.80460815197, 445332.62610193976], [85026.46280815145, 445313.2181019362], [85032.96885536463, 445291.6461181655], [85037.83751465079, 445269.64667974313], [85044.32554542777, 445234.0399362586], [85044.74419586977, 445232.25449217163], [85049.97400334915, 445203.86810755194], [85052.45160607126, 445175.1105137236], [85052.15406865523, 445146.2479221987], [85049.08414543045, 445117.54751646216], [85043.27025493945, 445089.2749786312], [85034.76621686509, 445061.6920300129], [85023.65075381711, 445035.0540083282], [85010.02676259016, 445009.6075040281], [84994.02036163936, 444985.58807758515], [84975.77972359095, 444963.2180788897], [84955.47370359562, 444942.70458893804], [84933.29027622181, 444924.2375028659], [84909.43479535908, 444907.98777207255], [84884.12809323953, 444894.1058217096], [84857.60443617491, 444882.72015818197], [84830.23019019431, 444872.4990983561], [84798.30989105064, 444860.453646889], [84768.34558036017, 444849.1198624654], [84737.50887653882, 444837.399454981], [84735.9425088746, 444836.8091062853], [84618.21779772389, 444792.8145084348], [84543.91506166516, 444764.11362609855], [84479.33443811831, 444738.87955293036], [84454.0570922403, 444729.0029039585], [84419.9605724751, 444711.1660737202], [84352.97114524737, 444667.75738790794], [84321.50533200936, 444649.9629301387], [84203.08223201097, 444592.11493014125], [84171.89143393215, 444579.0021633301], [84109.64643392738, 444556.8751633335], [84089.98011935735, 444550.63709111593], [84029.95921935746, 444533.84709110565], [84010.16513175193, 444529.0282406737], [83977.45823175508, 444522.2331406814], [83948.37406035277, 444517.66611414234], [83918.98229053857, 444515.9718223269], [83889.56598032563, 444517.1665821454], [83860.40842406393, 444521.2388874401], [83831.79042416846, 444528.14951979544], [83803.98758684607, 444537.83192623145], [83777.26766786454, 444550.1928601439], [83751.88799392543, 444565.11327931733], [83728.09298447422, 444582.4494923636], [83706.11179781414, 444602.03454254434], [83686.15612419257, 444623.6798156513], [83668.418147114, 444647.17685645923], [83653.06869251313, 444672.29937625764], [83640.2555836122, 444698.8054321291], [83630.10221730675, 444726.4397569849], [83625.2067009271, 444745.3023692973]]]}}]}